SL-8 R/B                
1 11574U 79089B   26119.79348698  .00000226  00000+0  76314-4 0  9998
2 11574  74.0707 356.4455 0015497 159.0724 201.1070 14.42381052443474
SL-14 R/B               
1 11672U 80005B   26119.86745304  .00000599  00000+0  58011-4 0  9997
2 11672  82.5130 258.6726 0015545 358.3698   1.7468 14.90986445484110
SL-8 R/B                
1 12139U 81003B   26119.82441611  .00014675  00000+0  36584-3 0  9995
2 12139  82.9372 242.6575 0254959   0.9640 359.2027 15.12948462322404
SL-3 R/B                
1 12465U 81046B   26119.83337904  .00012336  00000+0  27546-3 0  9994
2 12465  81.2319 228.2666 0018628 198.8361 161.2196 15.43210216446316
SL-3 R/B                
1 12904U 81103B   26119.73481611  .00003574  00000+0  15557-3 0  9993
2 12904  81.1573 153.5377 0014359 113.4304 246.8439 15.21884619980998
SL-3 R/B                
1 13068U 82013B   26119.78934083  .00004473  00000+0  19109-3 0  9993
2 13068  81.1712 100.8468 0022277  11.3260 348.8468 15.22434335412123
SL-3 R/B                
1 13154U 82039B   26119.80653978  .00001890  00000+0  11281-3 0  9994
2 13154  81.1466 156.9919 0028791 150.2732 210.0137 15.10315708389352
SL-3 R/B                
1 13403U 82079B   26119.84214566  .00005615  00000+0  21987-3 0  9998
2 13403  81.1434 132.6521 0023853 356.4198   3.6860 15.25356417385492
SL-14 R/B               
1 13553U 82092B   26119.66595029  .00000515  00000+0  54928-4 0  9991
2 13553  82.5655  93.6999 0021558 129.1929 318.7126 14.86708952336504
SL-3 R/B                
1 13819U 83010B   26119.59523830  .00014016  00000+0  26774-3 0  9998
2 13819  81.1006 299.7512 0015347 227.5274 132.4675 15.47846143365818
SL-3 R/B                
1 14208U 83075B   26119.79179330  .00011400  00000+0  28956-3 0  9994
2 14208  97.6120 126.3511 0022466  50.8127 309.5109 15.39557983338011
COSMOS 1536             
1 14699U 84013A   26119.86227352  .00006908  00000+0  27865-3 0  9992
2 14699  82.5459  56.9465 0016264 100.8319 259.4750 15.24507776280411
SL-14 R/B               
1 14820U 84027B   26119.66674550  .00000435  00000+0  46877-4 0  9991
2 14820  82.5442 197.2129 0018520 160.1636 200.0305 14.86025558255200
SL-8 R/B                
1 15483U 85006B   26119.88957904  .00000242  00000+0  88737-4 0  9993
2 15483  74.0448 166.9393 0017216  67.2141 106.0257 14.37813773161389
SL-12 R/B(2)            
1 15772U 85042D   26119.89582315  .00000013  00000+0  27318-4 0  9999
2 15772  71.1092 339.5463 0033624  43.4934 327.5045 14.21996079121673
SL-14 R/B               
1 15945U 85069B   26119.83782737  .00000435  00000+0  46273-4 0  9993
2 15945  82.5270 336.8466 0019474  27.2136 333.0097 14.86480352180434
SL-16 R/B               
1 16182U 85097B   26119.75827860 -.00000138  00000+0 -45206-4 0  9993
2 16182  71.0047  33.0363 0007855 195.5813 232.0616 14.16605239 94464
