[{"OBJECT_NAME":"SL-8 R/B","OBJECT_ID":"1979-089B","EPOCH":"2026-04-29T19:02:37.275072","MEAN_MOTION":14.42381052,"ECCENTRICITY":0.0015497,"INCLINATION":74.0707,"RA_OF_ASC_NODE":356.4455,"ARG_OF_PERICENTER":159.0724,"MEAN_ANOMALY":201.107,"EPHEMERIS_TYPE":0,"CLASSIFICATION_TYPE":"U","NORAD_CAT_ID":11574,"ELEMENT_SET_NO":999,"REV_AT_EPOCH":44347,"BSTAR":7.6314e-5,"MEAN_MOTION_DOT":2.26e-6,"MEAN_MOTION_DDOT":0},{"OBJECT_NAME":"SL-14 R/B","OBJECT_ID":"1980-005B","EPOCH":"2026-04-29T20:49:07.942656","MEAN_MOTION":14.90986445,"ECCENTRICITY":0.0015545,"INCLINATION":82.513,"RA_OF_ASC_NODE":258.6726,"ARG_OF_PERICENTER":358.3698,"MEAN_ANOMALY":1.7468,"EPHEMERIS_TYPE":0,"CLASSIFICATION_TYPE":"U","NORAD_CAT_ID":11672,"ELEMENT_SET_NO":999,"REV_AT_EPOCH":48411,"BSTAR":5.8011e-5,"MEAN_MOTION_DOT":5.99e-6,"MEAN_MOTION_DDOT":0},{"OBJECT_NAME":"SL-8 R/B","OBJECT_ID":"1981-003B","EPOCH":"2026-04-29T19:47:09.551904","MEAN_MOTION":15.12948462,"ECCENTRICITY":0.0254959,"INCLINATION":82.9372,"RA_OF_ASC_NODE":242.6575,"ARG_OF_PERICENTER":0.964,"MEAN_ANOMALY":359.2027,"EPHEMERIS_TYPE":0,"CLASSIFICATION_TYPE":"U","NORAD_CAT_ID":12139,"ELEMENT_SET_NO":999,"REV_AT_EPOCH":32240,"BSTAR":0.00036584,"MEAN_MOTION_DOT":0.00014675,"MEAN_MOTION_DDOT":0},{"OBJECT_NAME":"SL-3 R/B","OBJECT_ID":"1981-046B","EPOCH":"2026-04-29T20:00:03.949056","MEAN_MOTION":15.43210216,"ECCENTRICITY":0.0018628,"INCLINATION":81.2319,"RA_OF_ASC_NODE":228.2666,"ARG_OF_PERICENTER":198.8361,"MEAN_ANOMALY":161.2196,"EPHEMERIS_TYPE":0,"CLASSIFICATION_TYPE":"U","NORAD_CAT_ID":12465,"ELEMENT_SET_NO":999,"REV_AT_EPOCH":44631,"BSTAR":0.00027546,"MEAN_MOTION_DOT":0.00012336,"MEAN_MOTION_DDOT":0},{"OBJECT_NAME":"SL-3 R/B","OBJECT_ID":"1981-103B","EPOCH":"2026-04-29T17:38:08.111904","MEAN_MOTION":15.21884619,"ECCENTRICITY":0.0014359,"INCLINATION":81.1573,"RA_OF_ASC_NODE":153.5377,"ARG_OF_PERICENTER":113.4304,"MEAN_ANOMALY":246.8439,"EPHEMERIS_TYPE":0,"CLASSIFICATION_TYPE":"U","NORAD_CAT_ID":12904,"ELEMENT_SET_NO":999,"REV_AT_EPOCH":98099,"BSTAR":0.00015557,"MEAN_MOTION_DOT":3.574e-5,"MEAN_MOTION_DDOT":0},{"OBJECT_NAME":"SL-3 R/B","OBJECT_ID":"1982-013B","EPOCH":"2026-04-29T18:56:39.047712","MEAN_MOTION":15.22434335,"ECCENTRICITY":0.0022277,"INCLINATION":81.1712,"RA_OF_ASC_NODE":100.8468,"ARG_OF_PERICENTER":11.326,"MEAN_ANOMALY":348.8468,"EPHEMERIS_TYPE":0,"CLASSIFICATION_TYPE":"U","NORAD_CAT_ID":13068,"ELEMENT_SET_NO":999,"REV_AT_EPOCH":41212,"BSTAR":0.00019109,"MEAN_MOTION_DOT":4.473e-5,"MEAN_MOTION_DDOT":0},{"OBJECT_NAME":"SL-3 R/B","OBJECT_ID":"1982-039B","EPOCH":"2026-04-29T19:21:25.036992","MEAN_MOTION":15.10315708,"ECCENTRICITY":0.0028791,"INCLINATION":81.1466,"RA_OF_ASC_NODE":156.9919,"ARG_OF_PERICENTER":150.2732,"MEAN_ANOMALY":210.0137,"EPHEMERIS_TYPE":0,"CLASSIFICATION_TYPE":"U","NORAD_CAT_ID":13154,"ELEMENT_SET_NO":999,"REV_AT_EPOCH":38935,"BSTAR":0.00011281,"MEAN_MOTION_DOT":1.89e-5,"MEAN_MOTION_DDOT":0},{"OBJECT_NAME":"SL-3 R/B","OBJECT_ID":"1982-079B","EPOCH":"2026-04-29T20:12:41.385024","MEAN_MOTION":15.25356417,"ECCENTRICITY":0.0023853,"INCLINATION":81.1434,"RA_OF_ASC_NODE":132.6521,"ARG_OF_PERICENTER":356.4198,"MEAN_ANOMALY":3.686,"EPHEMERIS_TYPE":0,"CLASSIFICATION_TYPE":"U","NORAD_CAT_ID":13403,"ELEMENT_SET_NO":999,"REV_AT_EPOCH":38549,"BSTAR":0.00021987,"MEAN_MOTION_DOT":5.615e-5,"MEAN_MOTION_DDOT":0},{"OBJECT_NAME":"SL-14 R/B","OBJECT_ID":"1982-092B","EPOCH":"2026-04-29T15:58:58.105056","MEAN_MOTION":14.86708952,"ECCENTRICITY":0.0021558,"INCLINATION":82.5655,"RA_OF_ASC_NODE":93.6999,"ARG_OF_PERICENTER":129.1929,"MEAN_ANOMALY":318.7126,"EPHEMERIS_TYPE":0,"CLASSIFICATION_TYPE":"U","NORAD_CAT_ID":13553,"ELEMENT_SET_NO":999,"REV_AT_EPOCH":33650,"BSTAR":5.4928e-5,"MEAN_MOTION_DOT":5.15e-6,"MEAN_MOTION_DDOT":0},{"OBJECT_NAME":"SL-3 R/B","OBJECT_ID":"1983-010B","EPOCH":"2026-04-29T14:17:08.589120","MEAN_MOTION":15.47846143,"ECCENTRICITY":0.0015347,"INCLINATION":81.1006,"RA_OF_ASC_NODE":299.7512,"ARG_OF_PERICENTER":227.5274,"MEAN_ANOMALY":132.4675,"EPHEMERIS_TYPE":0,"CLASSIFICATION_TYPE":"U","NORAD_CAT_ID":13819,"ELEMENT_SET_NO":999,"REV_AT_EPOCH":36581,"BSTAR":0.00026774,"MEAN_MOTION_DOT":0.00014016,"MEAN_MOTION_DDOT":0},{"OBJECT_NAME":"SL-3 R/B","OBJECT_ID":"1983-075B","EPOCH":"2026-04-29T19:00:10.941120","MEAN_MOTION":15.39557983,"ECCENTRICITY":0.0022466,"INCLINATION":97.612,"RA_OF_ASC_NODE":126.3511,"ARG_OF_PERICENTER":50.8127,"MEAN_ANOMALY":309.5109,"EPHEMERIS_TYPE":0,"CLASSIFICATION_TYPE":"U","NORAD_CAT_ID":14208,"ELEMENT_SET_NO":999,"REV_AT_EPOCH":33801,"BSTAR":0.00028956,"MEAN_MOTION_DOT":0.000114,"MEAN_MOTION_DDOT":0},{"OBJECT_NAME":"COSMOS 1536","OBJECT_ID":"1984-013A","EPOCH":"2026-04-29T20:41:40.432128","MEAN_MOTION":15.24507776,"ECCENTRICITY":0.0016264,"INCLINATION":82.5459,"RA_OF_ASC_NODE":56.9465,"ARG_OF_PERICENTER":100.8319,"MEAN_ANOMALY":259.475,"EPHEMERIS_TYPE":0,"CLASSIFICATION_TYPE":"U","NORAD_CAT_ID":14699,"ELEMENT_SET_NO":999,"REV_AT_EPOCH":28041,"BSTAR":0.00027865,"MEAN_MOTION_DOT":6.908e-5,"MEAN_MOTION_DDOT":0},{"OBJECT_NAME":"SL-14 R/B","OBJECT_ID":"1984-027B","EPOCH":"2026-04-29T16:00:06.811200","MEAN_MOTION":14.86025558,"ECCENTRICITY":0.001852,"INCLINATION":82.5442,"RA_OF_ASC_NODE":197.2129,"ARG_OF_PERICENTER":160.1636,"MEAN_ANOMALY":200.0305,"EPHEMERIS_TYPE":0,"CLASSIFICATION_TYPE":"U","NORAD_CAT_ID":14820,"ELEMENT_SET_NO":999,"REV_AT_EPOCH":25520,"BSTAR":4.6877e-5,"MEAN_MOTION_DOT":4.35e-6,"MEAN_MOTION_DDOT":0},{"OBJECT_NAME":"SL-8 R/B","OBJECT_ID":"1985-006B","EPOCH":"2026-04-29T21:20:59.629056","MEAN_MOTION":14.37813773,"ECCENTRICITY":0.0017216,"INCLINATION":74.0448,"RA_OF_ASC_NODE":166.9393,"ARG_OF_PERICENTER":67.2141,"MEAN_ANOMALY":106.0257,"EPHEMERIS_TYPE":0,"CLASSIFICATION_TYPE":"U","NORAD_CAT_ID":15483,"ELEMENT_SET_NO":999,"REV_AT_EPOCH":16138,"BSTAR":8.8737e-5,"MEAN_MOTION_DOT":2.42e-6,"MEAN_MOTION_DDOT":0},{"OBJECT_NAME":"SL-12 R/B(2)","OBJECT_ID":"1985-042D","EPOCH":"2026-04-29T21:29:59.120160","MEAN_MOTION":14.21996079,"ECCENTRICITY":0.0033624,"INCLINATION":71.1092,"RA_OF_ASC_NODE":339.5463,"ARG_OF_PERICENTER":43.4934,"MEAN_ANOMALY":327.5045,"EPHEMERIS_TYPE":0,"CLASSIFICATION_TYPE":"U","NORAD_CAT_ID":15772,"ELEMENT_SET_NO":999,"REV_AT_EPOCH":12167,"BSTAR":2.7318e-5,"MEAN_MOTION_DOT":1.3e-7,"MEAN_MOTION_DDOT":0},{"OBJECT_NAME":"SL-14 R/B","OBJECT_ID":"1985-069B","EPOCH":"2026-04-29T20:06:28.284768","MEAN_MOTION":14.86480352,"ECCENTRICITY":0.0019474,"INCLINATION":82.527,"RA_OF_ASC_NODE":336.8466,"ARG_OF_PERICENTER":27.2136,"MEAN_ANOMALY":333.0097,"EPHEMERIS_TYPE":0,"CLASSIFICATION_TYPE":"U","NORAD_CAT_ID":15945,"ELEMENT_SET_NO":999,"REV_AT_EPOCH":18043,"BSTAR":4.6273e-5,"MEAN_MOTION_DOT":4.35e-6,"MEAN_MOTION_DDOT":0},{"OBJECT_NAME":"SL-16 R/B","OBJECT_ID":"1985-097B","EPOCH":"2026-04-29T18:11:55.271040","MEAN_MOTION":14.16605239,"ECCENTRICITY":0.0007855,"INCLINATION":71.0047,"RA_OF_ASC_NODE":33.0363,"ARG_OF_PERICENTER":195.5813,"MEAN_ANOMALY":232.0616,"EPHEMERIS_TYPE":0,"CLASSIFICATION_TYPE":"U","NORAD_CAT_ID":16182,"ELEMENT_SET_NO":999,"REV_AT_EPOCH":9446,"BSTAR":-4.5206e-5,"MEAN_MOTION_DOT":-1.38e-6,"MEAN_MOTION_DDOT":0}]
